{
  "type": "FeatureCollection",
  "features": [
    {
      "id": "0",
      "type": "Feature",
      "properties": {
        "ring_mi": 5
      },
      "geometry": {
        "type": "Polygon",
        "coordinates": [
          [
            [
              -81.57444664470428,
              30.280193763659746
            ],
            [
              -81.5745549,
              30.280109200000005
            ],
            [
              -81.5747251,
              30.279970800000005
            ],
            [
              -81.5749703,
              30.27986449999999
            ],
            [
              -81.5751515,
              30.2798058
            ],
            [
              -81.5753487,
              30.279719099999998
            ],
            [
              -81.5754761,
              30.279677399999997
            ],
            [
              -81.5756069,
              30.2796161
            ],
            [
              -81.575696,
              30.2795743
            ],
            [
              -81.5758821,
              30.279479600000002
            ],
            [
              -81.5758856,
              30.279462799999997
            ],
            [
              -81.5759218,
              30.2794434
            ],
            [
              -81.5761068,
              30.279310399999993
            ],
            [
              -81.5761804,
              30.279213499999994
            ],
            [
              -81.5761364,
              30.279128299999993
            ],
            [
              -81.5761533,
              30.279102799999993
            ],
            [
              -81.576186,
              30.279111200000003
            ],
            [
              -81.5762012,
              30.279172599999995
            ],
            [
              -81.5762262,
              30.2791736
            ],
            [
              -81.576261,
              30.279114699999994
            ],
            [
              -81.5763686,
              30.279082300000002
            ],
            [
              -81.5767115,
              30.279058199999998
            ],
            [
              -81.5769148,
              30.279006999999996
            ],
            [
              -81.5771099,
              30.2789101
            ],
            [
              -81.5772985,
              30.278732100000003
            ],
            [
              -81.5774574,
              30.278295700000005
            ],
            [
              -81.5777283,
              30.278155699999992
            ],
            [
              -81.5779672,
              30.2781155
            ],
            [
              -81.5783461,
              30.277912099999998
            ],
            [
              -81.57848150000001,
              30.277690100000004
            ],
            [
              -81.57861050000001,
              30.277609900000005
            ],
            [
              -81.5788964,
              30.277545799999995
            ],
            [
              -81.5790705,
              30.2773919
            ],
            [
              -81.5793018,
              30.277341799999995
            ],
            [
              -81.5794767,
              30.277178100000004
            ],
            [
              -81.5795219,
              30.2770066
            ],
            [
              -81.57942950000002,
              30.2767639
            ],
            [
              -81.5794822,
              30.2766463
            ],
            [
              -81.57990610000002,
              30.276360100000005
            ],
            [
              -81.58014480000001,
              30.276264599999998
            ],
            [
              -81.5814746,
              30.2752859
            ],
            [
              -81.5815824,
              30.27534969999999
            ],
            [
              -81.5805749,
              30.27613759999999
            ],
            [
              -81.5795851,
              30.27673740000001
            ],
            [
              -81.5795428,
              30.276826
            ],
            [
              -81.5795785,
              30.2769449
            ],
            [
              -81.57964810000001,
              30.277067799999994
            ],
            [
              -81.5795933,
              30.277194800000007
            ],
            [
              -81.57936760000001,
              30.277433500000004
            ],
            [
              -81.5791978,
              30.27747890000001
            ],
            [
              -81.5789981,
              30.2776614
            ],
            [
              -81.5788525,
              30.277729499999996
            ],
            [
              -81.5785921,
              30.2777267
            ],
            [
              -81.5784867,
              30.2778271
            ],
            [
              -81.5784853,
              30.277942199999995
            ],
            [
              -81.5784581,
              30.278008099999997
            ],
            [
              -81.5780352,
              30.278181399999987
            ],
            [
              -81.5778462,
              30.278304399999996
            ],
            [
              -81.57752390000002,
              30.2784315
            ],
            [
              -81.5774025,
              30.2787601
            ],
            [
              -81.5771363,
              30.279028300000004
            ],
            [
              -81.5769962,
              30.2791191
            ],
            [
              -81.5764709,
              30.2792421
            ],
            [
              -81.5763361,
              30.2793495
            ],
            [
              -81.5763053,
              30.2794122
            ],
            [
              -81.5761936,
              30.279477700000005
            ],
            [
              -81.5758007,
              30.279698300000007
            ],
            [
              -81.5757157,
              30.279763
            ],
            [
              -81.5755918,
              30.2798336
            ],
            [
              -81.5753574,
              30.2798608
            ],
            [
              -81.5751877,
              30.2799393
            ],
            [
              -81.5749676,
              30.280054399999994
            ],
            [
              -81.5748305,
              30.280168900000007
            ],
            [
              -81.57458581353265,
              30.280265333138928
            ],
            [
              -81.57444664470428,
              30.280193763659746
            ]
          ]
        ]
      },
      "bbox": [
        -81.5815824,
        30.2752859,
        -81.57444664470428,
        30.280265333138928
      ]
    }
  ]
}