{
  "type": "FeatureCollection",
  "features": [
    {
      "id": "0",
      "type": "Feature",
      "properties": {
        "ring_mi": 1
      },
      "geometry": {
        "type": "Polygon",
        "coordinates": [
          [
            [
              -81.59995725029096,
              30.217696180837862
            ],
            [
              -81.60002913182214,
              30.216272365814113
            ],
            [
              -81.60026135569406,
              30.214861525292434
            ],
            [
              -81.6006516787786,
              30.213477245697824
            ],
            [
              -81.60119633585373,
              30.21213285711289
            ],
            [
              -81.60189007610263,
              30.210841304951654
            ],
            [
              -81.60272621389196,
              30.209615025356555
            ],
            [
              -81.60369669333207,
              30.208465825516743
            ],
            [
              -81.60479216599106,
              30.207404770056396
            ],
            [
              -81.60600208100885,
              30.20644207458397
            ],
            [
              -81.6073147867405,
              30.205587007422903
            ],
            [
              -81.60871764294868,
              30.204847800466318
            ],
            [
              -81.61019714246521,
              30.204231570009487
            ],
            [
              -81.61173904115333,
              30.203744248318607
            ],
            [
              -81.61332849492307,
              30.2033905265907
            ],
            [
              -81.6149502024869,
              30.203173809850682
            ],
            [
              -81.6165885524883,
              30.203096184216953
            ],
            [
              -81.61822777359535,
              30.20315839684867
            ],
            [
              -81.6198520861234,
              30.20335984876616
            ],
            [
              -81.6214458537368,
              30.203698600613265
            ],
            [
              -81.62299373377886,
              30.204171391306176
            ],
            [
              -81.62448082479214,
              30.20477366939033
            ],
            [
              -81.62589280981749,
              30.20549963680516
            ],
            [
              -81.62721609409972,
              30.206342304638003
            ],
            [
              -81.62843793588068,
              30.20729356033324
            ],
            [
              -81.62954656902495,
              30.20834424571344
            ],
            [
              -81.63053131630059,
              30.209484245064804
            ],
            [
              -81.63138269222526,
              30.210702582443542
            ],
            [
              -81.63209249448653,
              30.211987527269663
            ],
            [
              -81.63265388305331,
              30.213326707196174
            ],
            [
              -81.63306144621203,
              30.214707227170333
            ],
            [
              -81.63331125288528,
              30.216115793543704
            ],
            [
              -81.6334008907214,
              30.217538842038977
            ],
            [
              -81.6333294895794,
              30.218962668343412
            ],
            [
              -81.63309773017308,
              30.220373560072296
            ],
            [
              -81.63270783778148,
              30.221757928832865
            ],
            [
              -81.63216356107534,
              30.223102441115813
            ],
            [
              -81.63147013625411,
              30.22439414675354
            ],
            [
              -81.63063423682942,
              30.225620603705554
            ],
            [
              -81.62966390953068,
              30.22676999796702
            ],
            [
              -81.62856849694309,
              30.227831257442208
            ],
            [
              -81.62735854761823,
              30.228794158682508
            ],
            [
              -81.62604571451942,
              30.22964942545693
            ],
            [
              -81.62464264277865,
              30.23038881820134
            ],
            [
              -81.62316284784688,
              30.231005213480714
            ],
            [
              -81.62162058521353,
              30.231492672694813
            ],
            [
              -81.62003071295476,
              30.2318464993617
            ],
            [
              -81.61840854844041,
              30.23206328442371
            ],
            [
              -81.61676972058734,
              30.232140939136837
            ],
            [
              -81.61513001909108,
              30.232078715224443
            ],
            [
              -81.61350524209733,
              30.231877212099718
            ],
            [
              -81.61191104379095,
              30.23153837108668
            ],
            [
              -81.61036278337988,
              30.23106545669571
            ],
            [
              -81.60887537693894,
              30.230463025135034
            ],
            [
              -81.607463153549,
              30.229736880363262
            ],
            [
              -81.60613971712547,
              30.22889401810876
            ],
            [
              -81.60491781527317,
              30.227942558398663
            ],
            [
              -81.60380921643603,
              30.2268916672506
            ],
            [
              -81.60282459652761,
              30.22575146828588
            ],
            [
              -81.60197343613558,
              30.224532945119357
            ],
            [
              -81.60126392928956,
              30.223247835470723
            ],
            [
              -81.60070290466803,
              30.221908518020996
            ],
            [
              -81.60029575999829,
              30.220527893107864
            ],
            [
              -81.6000464102755,
              30.219119258412555
            ],
            [
              -81.59995725029096,
              30.217696180837862
            ]
          ]
        ]
      }
    },
    {
      "id": "1",
      "type": "Feature",
      "properties": {
        "ring_mi": 3
      },
      "geometry": {
        "type": "Polygon",
        "coordinates": [
          [
            [
              -81.56742850254902,
              30.209341211435376
            ],
            [
              -81.56860076250491,
              30.205188641324238
            ],
            [
              -81.57023587305913,
              30.20115584758588
            ],
            [
              -81.57231803806232,
              30.197281652148405
            ],
            [
              -81.57482716442377,
              30.19360334571762
            ],
            [
              -81.57773905717481,
              30.19015632941354
            ],
            [
              -81.58102565365114,
              30.18697377472131
            ],
            [
              -81.58465529449461,
              30.18408630499735
            ],
            [
              -81.58859302883653,
              30.181521701561085
            ],
            [
              -81.59280095071333,
              30.179304637164034
            ],
            [
              -81.5972385634819,
              30.177456439364335
            ],
            [
              -81.60186316874973,
              30.17599488604798
            ],
            [
              -81.60663027611614,
              30.17493403503103
            ],
            [
              -81.61149402983415,
              30.174284089353137
            ],
            [
              -81.61640764835367,
              30.174051299533783
            ],
            [
              -81.62132387259142,
              30.174237903713067
            ],
            [
              -81.6261954186973,
              30.17484210624067
            ],
            [
              -81.63097543104666,
              30.17585809491386
            ],
            [
              -81.63561793118664,
              30.177276096700336
            ],
            [
              -81.6400782585005,
              30.17908247141922
            ],
            [
              -81.64431349842788,
              30.181259842494093
            ],
            [
              -81.64828289418858,
              30.18378726354247
            ],
            [
              -81.65194823810522,
              30.18664041922555
            ],
            [
              -81.65527423880135,
              30.18979185845761
            ],
            [
              -81.65822886076866,
              30.19321125776551
            ],
            [
              -81.66078363304493,
              30.196865712300394
            ],
            [
              -81.66291392402493,
              30.200720051738134
            ],
            [
              -81.66459917973398,
              30.204737178064075
            ],
            [
              -81.66582312323007,
              30.208878422024494
            ],
            [
              -81.66657391315873,
              30.213103914843792
            ],
            [
              -81.66684425986521,
              30.217372971654125
            ],
            [
              -81.66663149786652,
              30.22164448296539
            ],
            [
              -81.66593761389872,
              30.225877310419406
            ],
            [
              -81.66476923017785,
              30.230030683022992
            ],
            [
              -81.66313754294394,
              30.234064590042475
            ],
            [
              -81.66105821679014,
              30.237940166767117
            ],
            [
              -81.6585512357117,
              30.241620069409105
            ],
            [
              -81.65564071223511,
              30.24506883550703
            ],
            [
              -81.65235465640394,
              30.248253226332217
            ],
            [
              -81.64872470679938,
              30.25114254796672
            ],
            [
              -81.64478582615526,
              30.25370894792318
            ],
            [
              -81.64057596448662,
              30.255927684410796
            ],
            [
              -81.63613569298151,
              30.257777365613826
            ],
            [
              -81.6315078122061,
              30.25924015663981
            ],
            [
              -81.62673693843706,
              30.260301952108097
            ],
            [
              -81.62186907216227,
              30.26095251268419
            ],
            [
              -81.61695115297533,
              30.26118556421837
            ],
            [
              -81.61203060523209,
              30.26099885851293
            ],
            [
              -81.60715487893287,
              30.260394195119805
            ],
            [
              -81.60237099034507,
              30.259377403952612
            ],
            [
              -81.59772506688346,
              30.257958288883113
            ],
            [
              -81.59326190072112,
              30.256150532875157
            ],
            [
              -81.58902451551377,
              30.253971565587396
            ],
            [
              -81.58505375048327,
              30.25144239474402
            ],
            [
              -81.5813878659271,
              30.24858740292752
            ],
            [
              -81.57806217399781,
              30.2454341117852
            ],
            [
              -81.57510869833766,
              30.242012915958114
            ],
            [
              -81.5725558658566,
              30.23835678933423
            ],
            [
              -81.57042823361449,
              30.234500966495034
            ],
            [
              -81.56874625341213,
              30.230482602461393
            ],
            [
              -81.56752607631564,
              30.226340414051315
            ],
            [
              -81.56677939893908,
              30.22211430633497
            ],
            [
              -81.56651335289438,
              30.217844987810295
            ],
            [
              -81.56673043839282,
              30.21357357802489
            ],
            [
              -81.56742850254902,
              30.209341211435376
            ]
          ]
        ]
      }
    },
    {
      "id": "2",
      "type": "Feature",
      "properties": {
        "ring_mi": 5
      },
      "geometry": {
        "type": "Polygon",
        "coordinates": [
          [
            [
              -81.557268950026,
              30.166538281978365
            ],
            [
              -81.563318175605,
              30.161726859242954
            ],
            [
              -81.56988042683732,
              30.157453515605468
            ],
            [
              -81.57689255180522,
              30.153759334247564
            ],
            [
              -81.5842870975599,
              30.15067982570545
            ],
            [
              -81.5919929567435,
              30.1482445884172
            ],
            [
              -81.59993604832103,
              30.146477025917445
            ],
            [
              -81.60804002602202,
              30.145394123318844
            ],
            [
              -81.6162270078597,
              30.145006285162456
            ],
            [
              -81.62441831991974,
              30.14531723614494
            ],
            [
              -81.6325352474934,
              30.146323985643857
            ],
            [
              -81.64049978656868,
              30.14801685636766
            ],
            [
              -81.6482353886919,
              30.15037957686025
            ],
            [
              -81.65566769226724,
              30.153389436994836
            ],
            [
              -81.66272523347588,
              30.15701750500512
            ],
            [
              -81.66934013016721,
              30.1612289040268
            ],
            [
              -81.67544873230167,
              30.165983145564397
            ],
            [
              -81.68099223280812,
              30.171234516763224
            ],
            [
              -81.68591723305573,
              30.176932517857143
            ],
            [
              -81.69017625752983,
              30.183022345685128
            ],
            [
              -81.69372821274193,
              30.189445418727345
            ],
            [
              -81.69653878589254,
              30.196139938709752
            ],
            [
              -81.69858077933853,
              30.203041483466645
            ],
            [
              -81.69983437749354,
              30.210083625440507
            ],
            [
              -81.70028734340255,
              30.217198569936752
            ],
            [
              -81.6999351428794,
              30.224317807045292
            ],
            [
              -81.69878099477171,
              30.23137277098934
            ],
            [
              -81.69683584661608,
              30.23829550057045
            ],
            [
              -81.69411827566192,
              30.2450192943464
            ],
            [
              -81.69065431596762,
              30.251479354207845
            ],
            [
              -81.68647721300141,
              30.257613411111077
            ],
            [
              -81.68162710790246,
              30.26336232687621
            ],
            [
              -81.67615065426962,
              30.268670666174916
            ],
            [
              -81.670100571035,
              30.273487233104337
            ],
            [
              -81.66353513564208,
              30.277765567075683
            ],
            [
              -81.65651762237194,
              30.281464393131113
            ],
            [
              -81.64911569124132,
              30.2845480222406
            ],
            [
              -81.64140073342334,
              30.286986697614175
            ],
            [
              -81.6334471796088,
              30.28875688359266
            ],
            [
              -81.62533177812736,
              30.289841494243827
            ],
            [
              -81.61713284997741,
              30.29023005938664
            ],
            [
              -81.60892952816577,
              30.289918826386536
            ],
            [
              -81.60080098893175,
              30.288910796703867
            ],
            [
              -81.59282568251909,
              30.287215696827353
            ],
            [
              -81.5850805711657,
              30.28484988387888
            ],
            [
              -81.5776403819024,
              30.28183618682742
            ],
            [
              -81.57458572500691,
              30.280265368027717
            ],
            [
              -81.5748305,
              30.280168900000007
            ],
            [
              -81.5749676,
              30.280054399999994
            ],
            [
              -81.5751877,
              30.2799393
            ],
            [
              -81.5753574,
              30.2798608
            ],
            [
              -81.5755918,
              30.2798336
            ],
            [
              -81.5757157,
              30.279763
            ],
            [
              -81.5758007,
              30.279698300000007
            ],
            [
              -81.5761936,
              30.279477700000005
            ],
            [
              -81.5763053,
              30.2794122
            ],
            [
              -81.5763361,
              30.2793495
            ],
            [
              -81.5764709,
              30.2792421
            ],
            [
              -81.5769962,
              30.2791191
            ],
            [
              -81.5771363,
              30.279028300000004
            ],
            [
              -81.5774025,
              30.2787601
            ],
            [
              -81.57752390000002,
              30.2784315
            ],
            [
              -81.5778462,
              30.278304399999996
            ],
            [
              -81.5780352,
              30.278181399999987
            ],
            [
              -81.5784581,
              30.278008099999997
            ],
            [
              -81.5784853,
              30.277942199999995
            ],
            [
              -81.5784867,
              30.2778271
            ],
            [
              -81.5785921,
              30.2777267
            ],
            [
              -81.5788525,
              30.277729499999996
            ],
            [
              -81.5789981,
              30.2776614
            ],
            [
              -81.5791978,
              30.27747890000001
            ],
            [
              -81.57936760000001,
              30.277433500000004
            ],
            [
              -81.5795933,
              30.277194800000007
            ],
            [
              -81.57964810000001,
              30.277067799999994
            ],
            [
              -81.5795785,
              30.2769449
            ],
            [
              -81.5795428,
              30.276826
            ],
            [
              -81.5795851,
              30.27673740000001
            ],
            [
              -81.5805749,
              30.27613759999999
            ],
            [
              -81.5815824,
              30.27534969999999
            ],
            [
              -81.5814746,
              30.2752859
            ],
            [
              -81.58014480000001,
              30.276264599999998
            ],
            [
              -81.57990610000002,
              30.276360100000005
            ],
            [
              -81.5794822,
              30.2766463
            ],
            [
              -81.57942950000002,
              30.2767639
            ],
            [
              -81.5795219,
              30.2770066
            ],
            [
              -81.5794767,
              30.277178100000004
            ],
            [
              -81.5793018,
              30.277341799999995
            ],
            [
              -81.5790705,
              30.2773919
            ],
            [
              -81.5788964,
              30.277545799999995
            ],
            [
              -81.57861050000001,
              30.277609900000005
            ],
            [
              -81.57848150000001,
              30.277690100000004
            ],
            [
              -81.5783461,
              30.277912099999998
            ],
            [
              -81.5779672,
              30.2781155
            ],
            [
              -81.5777283,
              30.278155699999992
            ],
            [
              -81.5774574,
              30.278295700000005
            ],
            [
              -81.5772985,
              30.278732100000003
            ],
            [
              -81.5771099,
              30.2789101
            ],
            [
              -81.5769148,
              30.279006999999996
            ],
            [
              -81.5767115,
              30.279058199999998
            ],
            [
              -81.5763686,
              30.279082300000002
            ],
            [
              -81.576261,
              30.279114699999994
            ],
            [
              -81.5762262,
              30.2791736
            ],
            [
              -81.5762012,
              30.279172599999995
            ],
            [
              -81.576186,
              30.279111200000003
            ],
            [
              -81.5761533,
              30.279102799999993
            ],
            [
              -81.5761364,
              30.279128299999993
            ],
            [
              -81.5761804,
              30.279213499999994
            ],
            [
              -81.5761068,
              30.279310399999993
            ],
            [
              -81.5759218,
              30.2794434
            ],
            [
              -81.5758856,
              30.279462799999997
            ],
            [
              -81.5758821,
              30.279479600000002
            ],
            [
              -81.575696,
              30.2795743
            ],
            [
              -81.5756069,
              30.2796161
            ],
            [
              -81.5754761,
              30.279677399999997
            ],
            [
              -81.5753487,
              30.279719099999998
            ],
            [
              -81.5751515,
              30.2798058
            ],
            [
              -81.5749703,
              30.27986449999999
            ],
            [
              -81.5747251,
              30.279970800000005
            ],
            [
              -81.5745549,
              30.280109200000005
            ],
            [
              -81.57444658205323,
              30.28019381259964
            ],
            [
              -81.57057688159016,
              30.278203684890645
            ],
            [
              -81.56395818138328,
              30.27398742532693
            ],
            [
              -81.55784807748623,
              30.269228083420163
            ],
            [
              -81.55230543467955,
              30.263971568029557
            ],
            [
              -81.54738361863066,
              30.258268576609517
            ],
            [
              -81.5431299824851,
              30.252174104096092
            ],
            [
              -81.53958541265936,
              30.245746910501058
            ],
            [
              -81.53678393813615,
              30.23904895244819
            ],
            [
              -81.53475240690382,
              30.23214478422543
            ],
            [
              -81.53351023249304,
              30.225100934207912
            ],
            [
              -81.53306921285285,
              30.21798526272886
            ],
            [
              -81.53343342308342,
              30.210866307635715
            ],
            [
              -81.53459918281335,
              30.20381262386769
            ],
            [
              -81.53655509828008,
              30.196892123427205
            ],
            [
              -81.53928217845397,
              30.19017142209257
            ],
            [
              -81.54275402384322,
              30.18371519913316
            ],
            [
              -81.5469370859364,
              30.177585576143535
            ],
            [
              -81.55179099458708,
              30.171841520911528
            ],
            [
              -81.557268950026,
              30.166538281978365
            ]
          ]
        ]
      }
    }
  ]
}